STARLINK-30301          
1 57666U 23124D   25259.58585072 -.00000954  00000+0 -20095-4 0  9994
2 57666  53.1613 357.5138 0001196  86.1861 273.9276 15.30186049116012
STARLINK-30275          
1 57667U 23124E   25259.37923930  .00000417  00000+0  26208-4 0  9995
2 57667  53.1592 296.7304 0001320  79.1298 280.9851 15.30197604116873
STARLINK-30278          
1 57668U 23124F   25259.37396766  .00002893  00000+0  10981-3 0  9997
2 57668  53.1588 296.7235 0002239  87.5930 272.5327 15.30193673116875
STARLINK-30271          
1 57669U 23124G   25259.38766730  .00000607  00000+0  32664-4 0  9995
2 57669  53.1587 296.6699 0003576  94.8125 265.3284 15.30192320116870
STARLINK-30322          
1 57670U 23124H   25259.37819109  .00000618  00000+0  32998-4 0  9997
2 57670  53.1594 296.7320 0001208  74.8047 285.3088 15.30195169116871
STARLINK-30296          
1 57671U 23124J   25259.49196237 -.00000313  00000+0  15841-5 0  9993
2 57671  53.1573 296.1494 0002164  91.3556 268.7692 15.30184421116893
STARLINK-30274          
1 57672U 23124K   25258.82299098  .00001080  00000+0  48583-4 0  9998
2 57672  53.1604 299.1895 0001275  85.6000 274.5147 15.30200272116791
STARLINK-30316          
1 57673U 23124L   25258.84408162  .00000547  00000+0  30607-4 0  9990
2 57673  53.1609 299.2214 0001406  88.6793 271.4369 15.30196191116797
STARLINK-30317          
1 57675U 23124N   25259.58337963  .00260553  00000+0  44543-2 0  9991
2 57675  53.1513 291.1137 0015556  30.1680 329.9924 15.49729941  5941
STARLINK-30313          
1 57676U 23124P   25259.47931582 -.00001235  00000+0 -29581-4 0  9996
2 57676  53.1608 296.1783 0001365  82.9209 277.1948 15.30185324116892
STARLINK-30303          
1 57677U 23124Q   25259.37071803  .00001972  00000+0  78732-4 0  9995
2 57677  53.1593 296.1763 0001104  91.4956 268.6172 15.30179106116883
STARLINK-30320          
1 57678U 23124R   25259.33440960 -.00000519  00000+0 -54321-5 0  9993
2 57678  53.1646 283.9173 0000410   7.9272 352.1735 15.30187783117058
STARLINK-30321          
1 57679U 23124S   25258.40155207  .00008985  00000+0  31486-3 0  9996
2 57679  53.1583 300.8001 0002830  95.3319 264.8005 15.30228258116735
STARLINK-30283          
1 57680U 23124T   25259.48563210 -.00000620  00000+0 -87988-5 0  9994
2 57680  53.1610 296.1520 0001219  89.9741 270.1399 15.30189633116895
STARLINK-30273          
1 57681U 23124U   25259.38450108  .00000534  00000+0  30166-4 0  9992
2 57681  53.1592 296.6673 0001044  75.6338 284.4778 15.30197346116876
STARLINK-30297          
1 57682U 23124V   25259.48248289 -.00002060  00000+0 -57489-4 0  9994
2 57682  53.1606 296.1956 0001574 107.5711 252.5462 15.30179693116893
