[{"OBJECT_NAME":"STARLINK-30301","OBJECT_ID":"2023-124D","EPOCH":"2025-09-16T14:03:37.502208","MEAN_MOTION":15.30186049,"ECCENTRICITY":0.00011965,"INCLINATION":53.1613,"RA_OF_ASC_NODE":357.5138,"ARG_OF_PERICENTER":86.1861,"MEAN_ANOMALY":273.9276,"EPHEMERIS_TYPE":0,"CLASSIFICATION_TYPE":"U","NORAD_CAT_ID":57666,"ELEMENT_SET_NO":999,"REV_AT_EPOCH":11601,"BSTAR":-2.0095226e-5,"MEAN_MOTION_DOT":-9.54e-6,"MEAN_MOTION_DDOT":0},{"OBJECT_NAME":"STARLINK-30275","OBJECT_ID":"2023-124E","EPOCH":"2025-09-16T09:06:06.275520","MEAN_MOTION":15.30197604,"ECCENTRICITY":0.00013206,"INCLINATION":53.1592,"RA_OF_ASC_NODE":296.7304,"ARG_OF_PERICENTER":79.1298,"MEAN_ANOMALY":280.9851,"EPHEMERIS_TYPE":0,"CLASSIFICATION_TYPE":"U","NORAD_CAT_ID":57667,"ELEMENT_SET_NO":999,"REV_AT_EPOCH":11687,"BSTAR":2.6207759e-5,"MEAN_MOTION_DOT":4.17e-6,"MEAN_MOTION_DDOT":0},{"OBJECT_NAME":"STARLINK-30278","OBJECT_ID":"2023-124F","EPOCH":"2025-09-16T08:58:30.805824","MEAN_MOTION":15.30193673,"ECCENTRICITY":0.00022392,"INCLINATION":53.1588,"RA_OF_ASC_NODE":296.7235,"ARG_OF_PERICENTER":87.593,"MEAN_ANOMALY":272.5327,"EPHEMERIS_TYPE":0,"CLASSIFICATION_TYPE":"U","NORAD_CAT_ID":57668,"ELEMENT_SET_NO":999,"REV_AT_EPOCH":11687,"BSTAR":0.00010981217,"MEAN_MOTION_DOT":2.893e-5,"MEAN_MOTION_DDOT":0},{"OBJECT_NAME":"STARLINK-30271","OBJECT_ID":"2023-124G","EPOCH":"2025-09-16T09:18:14.454720","MEAN_MOTION":15.3019232,"ECCENTRICITY":0.00035767,"INCLINATION":53.1587,"RA_OF_ASC_NODE":296.6699,"ARG_OF_PERICENTER":94.8125,"MEAN_ANOMALY":265.3284,"EPHEMERIS_TYPE":0,"CLASSIFICATION_TYPE":"U","NORAD_CAT_ID":57669,"ELEMENT_SET_NO":999,"REV_AT_EPOCH":11687,"BSTAR":3.2664401e-5,"MEAN_MOTION_DOT":6.07e-6,"MEAN_MOTION_DDOT":0},{"OBJECT_NAME":"STARLINK-30322","OBJECT_ID":"2023-124H","EPOCH":"2025-09-16T09:04:35.710176","MEAN_MOTION":15.30195169,"ECCENTRICITY":0.00012087,"INCLINATION":53.1594,"RA_OF_ASC_NODE":296.732,"ARG_OF_PERICENTER":74.8047,"MEAN_ANOMALY":285.3088,"EPHEMERIS_TYPE":0,"CLASSIFICATION_TYPE":"U","NORAD_CAT_ID":57670,"ELEMENT_SET_NO":999,"REV_AT_EPOCH":11687,"BSTAR":3.2998155e-5,"MEAN_MOTION_DOT":6.18e-6,"MEAN_MOTION_DDOT":0},{"OBJECT_NAME":"STARLINK-30296","OBJECT_ID":"2023-124J","EPOCH":"2025-09-16T11:48:25.548768","MEAN_MOTION":15.30184421,"ECCENTRICITY":0.00021641,"INCLINATION":53.1573,"RA_OF_ASC_NODE":296.1494,"ARG_OF_PERICENTER":91.3556,"MEAN_ANOMALY":268.7692,"EPHEMERIS_TYPE":0,"CLASSIFICATION_TYPE":"U","NORAD_CAT_ID":57671,"ELEMENT_SET_NO":999,"REV_AT_EPOCH":11689,"BSTAR":1.58414e-6,"MEAN_MOTION_DOT":-3.13e-6,"MEAN_MOTION_DDOT":0},{"OBJECT_NAME":"STARLINK-30274","OBJECT_ID":"2023-124K","EPOCH":"2025-09-15T19:45:06.420672","MEAN_MOTION":15.30200272,"ECCENTRICITY":0.0001275,"INCLINATION":53.1604,"RA_OF_ASC_NODE":299.1895,"ARG_OF_PERICENTER":85.6,"MEAN_ANOMALY":274.5147,"EPHEMERIS_TYPE":0,"CLASSIFICATION_TYPE":"U","NORAD_CAT_ID":57672,"ELEMENT_SET_NO":999,"REV_AT_EPOCH":11679,"BSTAR":4.8583176e-5,"MEAN_MOTION_DOT":1.08e-5,"MEAN_MOTION_DDOT":0},{"OBJECT_NAME":"STARLINK-30316","OBJECT_ID":"2023-124L","EPOCH":"2025-09-15T20:15:28.651968","MEAN_MOTION":15.30196191,"ECCENTRICITY":0.00014062,"INCLINATION":53.1609,"RA_OF_ASC_NODE":299.2214,"ARG_OF_PERICENTER":88.6793,"MEAN_ANOMALY":271.4369,"EPHEMERIS_TYPE":0,"CLASSIFICATION_TYPE":"U","NORAD_CAT_ID":57673,"ELEMENT_SET_NO":999,"REV_AT_EPOCH":11679,"BSTAR":3.0606727e-5,"MEAN_MOTION_DOT":5.47e-6,"MEAN_MOTION_DDOT":0},{"OBJECT_NAME":"STARLINK-30317","OBJECT_ID":"2023-124N","EPOCH":"2025-09-16T14:00:04.000032","MEAN_MOTION":15.49729941,"ECCENTRICITY":0.00155564,"INCLINATION":53.1513,"RA_OF_ASC_NODE":291.1137,"ARG_OF_PERICENTER":30.168,"MEAN_ANOMALY":329.9924,"EPHEMERIS_TYPE":0,"CLASSIFICATION_TYPE":"U","NORAD_CAT_ID":57675,"ELEMENT_SET_NO":999,"REV_AT_EPOCH":594,"BSTAR":0.0044542748,"MEAN_MOTION_DOT":0.00260553,"MEAN_MOTION_DDOT":0},{"OBJECT_NAME":"STARLINK-30313","OBJECT_ID":"2023-124P","EPOCH":"2025-09-16T11:30:12.886848","MEAN_MOTION":15.30185324,"ECCENTRICITY":0.00013657,"INCLINATION":53.1608,"RA_OF_ASC_NODE":296.1783,"ARG_OF_PERICENTER":82.9209,"MEAN_ANOMALY":277.1948,"EPHEMERIS_TYPE":0,"CLASSIFICATION_TYPE":"U","NORAD_CAT_ID":57676,"ELEMENT_SET_NO":999,"REV_AT_EPOCH":11689,"BSTAR":-2.9580885e-5,"MEAN_MOTION_DOT":-1.235e-5,"MEAN_MOTION_DDOT":0},{"OBJECT_NAME":"STARLINK-30303","OBJECT_ID":"2023-124Q","EPOCH":"2025-09-16T08:53:50.037792","MEAN_MOTION":15.30179106,"ECCENTRICITY":0.00011045,"INCLINATION":53.1593,"RA_OF_ASC_NODE":296.1763,"ARG_OF_PERICENTER":91.4956,"MEAN_ANOMALY":268.6172,"EPHEMERIS_TYPE":0,"CLASSIFICATION_TYPE":"U","NORAD_CAT_ID":57677,"ELEMENT_SET_NO":999,"REV_AT_EPOCH":11688,"BSTAR":7.8732085e-5,"MEAN_MOTION_DOT":1.972e-5,"MEAN_MOTION_DDOT":0},{"OBJECT_NAME":"STARLINK-30320","OBJECT_ID":"2023-124R","EPOCH":"2025-09-16T08:01:32.989440","MEAN_MOTION":15.30187783,"ECCENTRICITY":4.106e-5,"INCLINATION":53.1646,"RA_OF_ASC_NODE":283.9173,"ARG_OF_PERICENTER":7.9272,"MEAN_ANOMALY":352.1735,"EPHEMERIS_TYPE":0,"CLASSIFICATION_TYPE":"U","NORAD_CAT_ID":57678,"ELEMENT_SET_NO":999,"REV_AT_EPOCH":11705,"BSTAR":-5.432138e-6,"MEAN_MOTION_DOT":-5.19e-6,"MEAN_MOTION_DDOT":0},{"OBJECT_NAME":"STARLINK-30321","OBJECT_ID":"2023-124S","EPOCH":"2025-09-15T09:38:14.098848","MEAN_MOTION":15.30228258,"ECCENTRICITY":0.00028304,"INCLINATION":53.1583,"RA_OF_ASC_NODE":300.8001,"ARG_OF_PERICENTER":95.3319,"MEAN_ANOMALY":264.8005,"EPHEMERIS_TYPE":0,"CLASSIFICATION_TYPE":"U","NORAD_CAT_ID":57679,"ELEMENT_SET_NO":999,"REV_AT_EPOCH":11673,"BSTAR":0.00031485708,"MEAN_MOTION_DOT":8.985e-5,"MEAN_MOTION_DDOT":0},{"OBJECT_NAME":"STARLINK-30283","OBJECT_ID":"2023-124T","EPOCH":"2025-09-16T11:39:18.613440","MEAN_MOTION":15.30189633,"ECCENTRICITY":0.00012193,"INCLINATION":53.161,"RA_OF_ASC_NODE":296.152,"ARG_OF_PERICENTER":89.9741,"MEAN_ANOMALY":270.1399,"EPHEMERIS_TYPE":0,"CLASSIFICATION_TYPE":"U","NORAD_CAT_ID":57680,"ELEMENT_SET_NO":999,"REV_AT_EPOCH":11689,"BSTAR":-8.798821e-6,"MEAN_MOTION_DOT":-6.2e-6,"MEAN_MOTION_DDOT":0},{"OBJECT_NAME":"STARLINK-30273","OBJECT_ID":"2023-124U","EPOCH":"2025-09-16T09:13:40.893312","MEAN_MOTION":15.30197346,"ECCENTRICITY":0.00010449,"INCLINATION":53.1592,"RA_OF_ASC_NODE":296.6673,"ARG_OF_PERICENTER":75.6338,"MEAN_ANOMALY":284.4778,"EPHEMERIS_TYPE":0,"CLASSIFICATION_TYPE":"U","NORAD_CAT_ID":57681,"ELEMENT_SET_NO":999,"REV_AT_EPOCH":11687,"BSTAR":3.0166304e-5,"MEAN_MOTION_DOT":5.34e-6,"MEAN_MOTION_DDOT":0},{"OBJECT_NAME":"STARLINK-30297","OBJECT_ID":"2023-124V","EPOCH":"2025-09-16T11:34:46.521696","MEAN_MOTION":15.30179693,"ECCENTRICITY":0.00015741,"INCLINATION":53.1606,"RA_OF_ASC_NODE":296.1956,"ARG_OF_PERICENTER":107.5711,"MEAN_ANOMALY":252.5462,"EPHEMERIS_TYPE":0,"CLASSIFICATION_TYPE":"U","NORAD_CAT_ID":57682,"ELEMENT_SET_NO":999,"REV_AT_EPOCH":11689,"BSTAR":-5.7488515e-5,"MEAN_MOTION_DOT":-2.06e-5,"MEAN_MOTION_DDOT":0}]
